NORAD_CAT_ID,OBJECT_NAME,OBJECT_TYPE,EPOCH,MEAN_MOTION,ECCENTRICITY,INCLINATION,RA_OF_ASC_NODE,ARG_OF_PERICENTER,MEAN_ANOMALY,BSTAR,MEAN_MOTION_DOT,MEAN_MOTION_DDOT,TLE_LINE0,TLE_LINE1,TLE_LINE2,SEMIMAJOR_AXIS,PERIOD,APOGEE,PERIGEE,DECAYED
51867.0,STARLINK-3590,PAYLOAD,2022-06-22 14:00:01,15.08870256,0.0001882,53.2188,336.9265,54.6388,59.4776,-0.0042482,-0.00067324,0.0,0 STARLINK-3590,1 51867U 22022R   22173.58334491 -.00067324  00000-0 -42482-2 0  9993,2 51867  53.2188 336.9265 0001882  54.6388  59.4776 15.08870256  1307,6917.788000000001,95.436,540.955,538.351,0.0
51867.0,STARLINK-3590,PAYLOAD,2022-06-22 22:00:00,15.08800136,0.0001929,53.2182,335.4314,47.4111,78.297,0.0032158,0.00051208,0.0,0 STARLINK-3590,1 51867U 22022R   22173.91667824  .00051208  00000-0  32158-2 0  9990,2 51867  53.2182 335.4314 0001929  47.4111  78.2970 15.08800136 18433,6918.002,95.44,541.202,538.533,0.0
51867.0,STARLINK-3590,PAYLOAD,2022-06-23 14:00:01,15.088517,0.0001844,53.2182,332.4377,53.5482,95.3081,-0.0013516,-0.00021742,0.0,0 STARLINK-3590,1 51867U 22022R   22174.58334491 -.00021742  00000-0 -13516-2 0  9994,2 51867  53.2182 332.4377 0001844  53.5482  95.3081 15.08851700 18531,6917.845,95.437,540.985,538.434,0.0
51867.0,STARLINK-3590,PAYLOAD,2022-06-23 22:00:00,15.08838285,0.0001923,53.2178,330.9423,46.6688,113.7911,-1.3571e-07,-2.9e-06,0.0,0 STARLINK-3590,1 51867U 22022R   22174.91667824 -.00000290  00000-0 -13571-6 0  9990,2 51867  53.2178 330.9423 0001923  46.6688 113.7911 15.08838285  1307,6917.886,95.438,541.081,538.42,0.0
51867.0,STARLINK-3590,PAYLOAD,2022-06-24 14:00:01,15.08842639,0.0001818,53.218,327.9486,51.1485,132.4758,-0.0013507,-0.00021722,0.0,0 STARLINK-3590,1 51867U 22022R   22175.58334491 -.00021722  00000-0 -13507-2 0  9993,2 51867  53.2180 327.9486 0001818  51.1485 132.4758 15.08842639 18688,6917.871999999999,95.437,540.995,538.48,0.0
51867.0,STARLINK-3590,PAYLOAD,2022-06-24 22:00:01,15.08820703,0.0001929,53.2178,326.453,45.7361,149.5415,0.0023419,0.00037161,0.0,0 STARLINK-3590,1 51867U 22022R   22175.91668981  .00037161  00000-0  23419-2 0  9999,2 51867  53.2178 326.4530 0001929  45.7361 149.5415 15.08820703  1302,6917.939,95.439,541.139,538.47,0.0
51867.0,STARLINK-3590,PAYLOAD,2022-06-25 06:00:00,15.08819857,0.0001771,53.218,324.9548,50.7051,156.1041,0.0025571,0.00040621,0.0,0 STARLINK-3590,1 51867U 22022R   22176.25001157  .00040621  00000-0  25571-2 0  9999,2 51867  53.2180 324.9548 0001771  50.7051 156.1041 15.08819857 18781,6917.941999999999,95.439,541.0319999999998,538.582,0.0
51867.0,STARLINK-3590,PAYLOAD,2022-06-25 14:00:01,15.08863677,0.0001877,53.2183,323.4594,50.3529,168.0446,-0.0016512,-0.00026488,0.0,0 STARLINK-3590,1 51867U 22022R   22176.58334491 -.00026488  00000-0 -16512-2 0  9997,2 51867  53.2183 323.4594 0001877  50.3529 168.0446 15.08863677  1302,6917.808000000001,95.436,540.971,538.375,0.0
51867.0,STARLINK-3590,PAYLOAD,2022-06-25 22:00:00,15.0884554,0.000193,53.2182,321.9637,44.0037,186.0143,-6.6133e-05,-1.341e-05,0.0,0 STARLINK-3590,1 51867U 22022R   22176.91667824 -.00001341  00000-0 -66133-4 0  9990,2 51867  53.2182 321.9637 0001930  44.0037 186.0143 15.08845540 18880,6917.863,95.437,541.064,538.393,0.0
51867.0,STARLINK-3590,PAYLOAD,2022-06-26 14:00:01,15.0887713,0.0001824,53.2188,318.9702,46.7578,206.5271,-0.0031375,-0.00049927,0.0,0 STARLINK-3590,1 51867U 22022R   22177.58335648 -.00049927  00000-0 -31375-2 0  9990,2 51867  53.2188 318.9702 0001824  46.7578 206.5271 15.08877130  1305,6917.767,95.435,540.894,538.37,0.0
51867.0,STARLINK-3590,PAYLOAD,2022-06-26 22:00:00,15.08836613,0.0001843,53.2186,317.4744,40.9206,223.9209,0.00081962,0.00012779,0.0,0 STARLINK-3590,1 51867U 22022R   22177.91667824  .00012779  00000-0  81962-3 0  9992,2 51867  53.2186 317.4744 0001843  40.9206 223.9209 15.08836613  1303,6917.891,95.438,541.031,538.481,0.0
51867.0,STARLINK-3590,PAYLOAD,2022-06-27 06:00:00,15.08814283,0.0001618,53.219,315.9763,44.4298,232.0178,0.0014685,0.00023144,0.0,0 STARLINK-3590,1 51867U 22022R   22178.25001157  .00023144  00000-0  14685-2 0  9996,2 51867  53.2190 315.9763 0001618  44.4298 232.0178 15.08814283 19081,6917.959,95.439,540.943,538.705,0.0
51867.0,STARLINK-3590,PAYLOAD,2022-06-27 14:00:01,15.08834112,0.0001714,53.2192,314.4813,42.2429,245.7729,-0.001033,-0.00016688,0.0,0 STARLINK-3590,1 51867U 22022R   22178.58334491 -.00016688  00000-0 -10330-2 0  9992,2 51867  53.2192 314.4813 0001714  42.2429 245.7729 15.08834112  1304,6917.898,95.438,540.9490000000002,538.578,0.0
51867.0,STARLINK-3590,PAYLOAD,2022-06-27 22:00:00,15.08835208,0.0001774999999999,53.2189,312.9854,38.4329,261.1634,0.00031776,4.772e-05,0.0,0 STARLINK-3590,1 51867U 22022R   22178.91667824  .00004772  00000-0  31776-3 0  9995,2 51867  53.2189 312.9854 0001775  38.4329 261.1634 15.08835208  1305,6917.895,95.438,540.988,538.5319999999998,0.0
51867.0,STARLINK-3590,PAYLOAD,2022-06-28 06:00:00,15.08810693,0.0001582,53.2193,311.4875,45.2746,265.916,0.003228,0.00051419,0.0,0 STARLINK-3590,1 51867U 22022R   22179.25001157  .00051419  00000-0  32280-2 0  9994,2 51867  53.2193 311.4875 0001582  45.2746 265.9160 15.08810693 19230,6917.97,95.439,540.929,538.741,0.0
51867.0,STARLINK-3590,PAYLOAD,2022-06-28 14:00:01,15.08860758,0.0001740999999999,53.2194,309.9927,43.6477,279.1206,-0.0040606,-0.00064372,0.0,0 STARLINK-3590,1 51867U 22022R   22179.58334491 -.00064372  00000-0 -40606-2 0  9995,2 51867  53.2194 309.9927 0001741  43.6477 279.1206 15.08860758  1305,6917.816999999999,95.436,540.886,538.4780000000002,0.0
51867.0,STARLINK-3590,PAYLOAD,2022-06-28 22:00:00,15.08824502,0.0001825,53.2189,308.4965,42.0428,292.3185,-0.00049414,-8.14e-05,0.0,0 STARLINK-3590,1 51867U 22022R   22179.91667824 -.00008140  00000-0 -49414-3 0  9999,2 51867  53.2189 308.4965 0001825  42.0428 292.3185 15.08824502  1307,6917.928000000001,95.439,541.055,538.53,0.0
51867.0,STARLINK-3590,PAYLOAD,2022-06-29 14:00:01,15.08833824,0.0001785,53.2191,305.5042,46.1939,311.3099,-0.0013374,-0.00021506,0.0,0 STARLINK-3590,1 51867U 22022R   22180.58334491 -.00021506  00000-0 -13374-2 0  9991,2 51867  53.2191 305.5042 0001785  46.1939 311.3099 15.08833824  1304,6917.899,95.438,540.999,538.529,0.0
51867.0,STARLINK-3590,PAYLOAD,2022-06-29 22:00:00,15.0883889,0.0001806,53.2186,304.008,43.3506,325.7291,-0.00095257,-0.00015416,0.0,0 STARLINK-3590,1 51867U 22022R   22180.91667824 -.00015416  00000-0 -95257-3 0  9991,2 51867  53.2186 304.0080 0001806  43.3506 325.7291 15.08838890 19497,6917.884,95.438,540.998,538.499,0.0
51867.0,STARLINK-3590,PAYLOAD,2022-06-30 14:00:01,15.08843335,0.0001803,53.2186,301.0159,47.1659,345.0852,-0.0012657,-0.00020377,0.0,0 STARLINK-3590,1 51867U 22022R   22181.58334491 -.00020377  00000-0 -12657-2 0  9990,2 51867  53.2186 301.0159 0001803  47.1659 345.0852 15.08843335  1308,6917.87,95.437,540.982,538.488,0.0
51867.0,STARLINK-3590,PAYLOAD,2022-06-30 22:00:00,15.08850089,0.000181,53.2182,299.5194,44.506,359.3305,-0.0013076,-0.00021044,0.0,0 STARLINK-3590,1 51867U 22022R   22181.91667824 -.00021044  00000-0 -13076-2 0  9994,2 51867  53.2182 299.5194 0001810  44.5060 359.3305 15.08850089  1304,6917.85,95.437,540.967,538.462,0.0
51867.0,STARLINK-3590,PAYLOAD,2022-07-01 14:00:01,15.08850405,0.0001848,53.2181,296.5273,47.6078,19.423,-0.0011368,-0.0001834,0.0,0 STARLINK-3590,1 51867U 22022R   22182.58334491 -.00018340  00000-0 -11368-2 0  9996,2 51867  53.2181 296.5273 0001848  47.6078  19.4230 15.08850405  1305,6917.849,95.437,540.992,538.435,0.0
51867.0,STARLINK-3590,PAYLOAD,2022-07-01 22:00:00,15.08861323,0.0001843,53.2179,295.0306,45.0382,33.5884,-0.0014875,-0.00023898,0.0,0 STARLINK-3590,1 51867U 22022R   22182.91667824 -.00023898  00000-0 -14875-2 0  9992,2 51867  53.2179 295.0306 0001843  45.0382  33.5884 15.08861323  1301,6917.815,95.436,540.955,538.405,0.0
51867.0,STARLINK-3590,PAYLOAD,2022-07-02 14:00:01,15.08862901,0.0001904,53.2179,292.0385,46.7795,55.0687,-0.001058,-0.00017098,0.0,0 STARLINK-3590,1 51867U 22022R   22183.58334491 -.00017098  00000-0 -10580-2 0  9991,2 51867  53.2179 292.0385 0001904  46.7795  55.0687 15.08862901  1302,6917.81,95.436,540.993,538.3580000000002,0.0
51867.0,STARLINK-3590,PAYLOAD,2022-07-02 22:00:00,15.08884452,0.0001846,53.2178,290.5416,42.9636,70.5109,-0.0035437,-0.00056315,0.0,0 STARLINK-3590,1 51867U 22022R   22183.91667824 -.00056315  00000-0 -35437-2 0  9990,2 51867  53.2178 290.5416 0001846  42.9636  70.5109 15.08884452  1302,6917.745,95.435,540.887,538.3330000000002,0.0
51867.0,STARLINK-3590,PAYLOAD,2022-07-03 00:00:00,15.08868962,0.0001769,53.218,290.1670000000001,44.0762,162.3097,-0.002197,-0.00035111,0.0,0 STARLINK-3590,1 51867U 22022R   22184.00001157 -.00035111  00000-0 -21970-2 0  9990,2 51867  53.2180 290.1670 0001769  44.0762 162.3097 15.08868962 19954,6917.792,95.436,540.881,538.433,0.0
51867.0,STARLINK-3590,PAYLOAD,2022-07-03 14:00:01,15.08871272,0.0001883,53.218,287.5495,43.3713,93.3332,-0.0032383,-0.00051502,0.0,0 STARLINK-3590,1 51867U 22022R   22184.58334491 -.00051502  00000-0 -32383-2 0  9995,2 51867  53.2180 287.5495 0001883  43.3713  93.3332 15.08871272 20049,6917.785,95.436,540.952,538.347,0.0
51867.0,STARLINK-3590,PAYLOAD,2022-07-03 22:00:00,15.0885344,0.0001851,53.2179,286.0525,42.4189,105.891,-0.0054148999999999,-0.00085478,0.0,0 STARLINK-3590,1 51867U 22022R   22184.91667824 -.00085478  00000-0 -54149-2 0  9994,2 51867  53.2179 286.0525 0001851  42.4189 105.8910 15.08853440  1303,6917.839,95.437,540.985,538.424,0.0
51867.0,STARLINK-3590,PAYLOAD,2022-07-04 14:00:01,15.08803745,0.0001971,53.2182,283.0607,44.5991,126.8364,5.6869e-05,6.16e-06,0.0,0 STARLINK-3590,1 51867U 22022R   22185.58334491  .00000616  00000-0  56869-4 0  9991,2 51867  53.2182 283.0607 0001971  44.5991 126.8364 15.08803745 20199,6917.991,95.44,541.22,538.493,0.0
